IRIDIUM 36 [-]          
1 24967U 97056C   23338.61828727  .00000734  00000+0  24329-3 0  9991
2 24967  86.3986  48.3565 0002171  89.3013 270.8433 14.36538387371710
IRIDIUM 39 [-]          
1 25042U 97069D   23338.40927438  .00001366  00000+0  36542-3 0  9998
2 25042  86.3911  91.3281 0018989  23.7219 336.4856 14.47547068367799
IRIDIUM 38 [-]          
1 25043U 97069E   23338.40921826  .00000930  00000+0  30749-3 0  9993
2 25043  86.3948 108.9296 0003423 123.4411 236.7114 14.36997656365393
IRIDIUM 42 [-]          
1 25077U 97077A   23338.43971767  .00000837  00000+0  28538-3 0  9990
2 25077  86.3950 114.4040 0002490 106.2913 253.8557 14.35297742360733
IRIDIUM 44 [-]          
1 25078U 97077B   23338.43300236  .00000946  00000+0  29963-3 0  9992
2 25078  86.3947  97.8327 0003861  82.2521 277.9116 14.39106046363026
IRIDIUM 45 [-]          
1 25104U 97082A   23338.43068909  .00009279  00000+0  58514-3 0  9998
2 25104  86.3745 313.7175 0173124 227.8094 130.8331 14.97304346367516
IRIDIUM 24 [-]          
1 25105U 97082B   23338.48405346  .00000977  00000+0  29849-3 0  9999
2 25105  86.3889 317.7424 0013381 122.8933 237.3556 14.40865577362446
IRIDIUM 51 [-]          
1 25262U 98018A   23338.50234960  .00010018  00000+0  53874-3 0  9990
2 25262  86.3904 324.0754 0160504 179.6846 180.4521 15.04208140361939
